{
"type": "FeatureCollection",
"features": [
{ "type": "Feature", "properties": { "id": 1909470096, "name": "面包新语", "name:en": "BreadTalk", "shop": "bakery", "opening_hours": "" }, "geometry": { "type": "Point", "coordinates": [ 116.45676619267924, 39.962567664111766 ] } },
{ "type": "Feature", "properties": { "id": 2418894072, "name": "巴黎贝甜", "name:en": "Paris Baguette", "shop": "bakery", "opening_hours": "" }, "geometry": { "type": "Point", "coordinates": [ 116.451696616326174, 39.916959742128441 ] } },
{ "type": "Feature", "properties": { "id": 2420792928, "name": "味多美", "name:en": "Wedome", "shop": "bakery", "opening_hours": "" }, "geometry": { "type": "Point", "coordinates": [ 116.463082061563554, 39.906442902288894 ] } },
{ "type": "Feature", "properties": { "id": 2480938122, "name": "好利来", "name:en": "Holiland", "shop": "bakery", "opening_hours": "Mo-Su 07:30-22:00" }, "geometry": { "type": "Point", "coordinates": [ 116.417127736647487, 39.924016510421268 ] } },
{ "type": "Feature", "properties": { "id": 2493417299, "name": "原麦山丘", "name:en": "With Wheat", "shop": "bakery", "opening_hours": "" }, "geometry": { "type": "Point", "coordinates": [ 116.373617375814462, 39.909206036890218 ] } },
{ "type": "Feature", "properties": { "id": 2496302787, "name": "金凤成祥", "name:en": "", "shop": "bakery", "opening_hours": "" }, "geometry": { "type": "Point", "coordinates": [ 116.418094904585246, 39.8567244019752 ] } },
{ "type": "Feature", "properties": { "id": 2515011122, "name": "味多美", "name:en": "Wedome", "shop": "bakery", "opening_hours": "" }, "geometry": { "type": "Point", "coordinates": [ 116.421301486195901, 39.88349005609669 ] } },
{ "type": "Feature", "properties": { "id": 2865890601, "name": "味多美", "name:en": "", "shop": "bakery", "opening_hours": "" }, "geometry": { "type": "Point", "coordinates": [ 116.414598689244315, 39.841181746033158 ] } },
{ "type": "Feature", "properties": { "id": 3045836133, "name": "味多美", "name:en": "Wedome", "shop": "bakery", "opening_hours": "" }, "geometry": { "type": "Point", "coordinates": [ 116.324548120002802, 39.932917096773139 ] } },
{ "type": "Feature", "properties": { "id": 3066312533, "name": "金凤成祥", "name:en": "", "shop": "bakery", "opening_hours": "" }, "geometry": { "type": "Point", "coordinates": [ 116.32545562026317, 39.944667271777639 ] } },
{ "type": "Feature", "properties": { "id": 3506894013, "name": "Comptoirs de France", "name:en": "", "shop": "bakery", "opening_hours": "Mo-Su 07:00-21:30" }, "geometry": { "type": "Point", "coordinates": [ 116.445641916187824, 39.936569715439326 ] } },
{ "type": "Feature", "properties": { "id": 3519076190, "name": "Sweet Tooth Bakery", "name:en": "", "shop": "bakery", "opening_hours": "" }, "geometry": { "type": "Point", "coordinates": [ 116.440714080889336, 39.935872483268234 ] } },
{ "type": "Feature", "properties": { "id": 3523165591, "name": "好利来", "name:en": "Holiland", "shop": "bakery", "opening_hours": "" }, "geometry": { "type": "Point", "coordinates": [ 116.41116088726173, 39.969322733249491 ] } },
{ "type": "Feature", "properties": { "id": 3523165801, "name": "", "name:en": "", "shop": "bakery", "opening_hours": "" }, "geometry": { "type": "Point", "coordinates": [ 116.41153940327203, 39.969322490875143 ] } },
{ "type": "Feature", "properties": { "id": 3523165812, "name": "千岛烘焙", "name:en": "Qian Dao Bakery", "shop": "bakery", "opening_hours": "" }, "geometry": { "type": "Point", "coordinates": [ 116.407498735102607, 39.961872322059904 ] } },
{ "type": "Feature", "properties": { "id": 4167797489, "name": "", "name:en": "", "shop": "bakery", "opening_hours": "" }, "geometry": { "type": "Point", "coordinates": [ 116.417452778596513, 39.927331424340913 ] } },
{ "type": "Feature", "properties": { "id": 4189415289, "name": "味多美", "name:en": "Wedome", "shop": "bakery", "opening_hours": "" }, "geometry": { "type": "Point", "coordinates": [ 116.430647524188061, 39.934188597412259 ] } },
{ "type": "Feature", "properties": { "id": 4213393031, "name": "金凤成祥", "name:en": "", "shop": "bakery", "opening_hours": "" }, "geometry": { "type": "Point", "coordinates": [ 116.342603153818075, 39.948423396439686 ] } },
{ "type": "Feature", "properties": { "id": 4321040499, "name": "好利来", "name:en": "Holiland", "shop": "bakery", "opening_hours": "" }, "geometry": { "type": "Point", "coordinates": [ 116.352274875977685, 39.90774077090304 ] } },
{ "type": "Feature", "properties": { "id": 4349689997, "name": "味多美", "name:en": "Wedome", "shop": "bakery", "opening_hours": "" }, "geometry": { "type": "Point", "coordinates": [ 116.374866669573407, 39.878783358697866 ] } },
{ "type": "Feature", "properties": { "id": 4365569589, "name": "好利来", "name:en": "Holiland", "shop": "bakery", "opening_hours": "" }, "geometry": { "type": "Point", "coordinates": [ 116.428643157274536, 39.86598583437398 ] } },
{ "type": "Feature", "properties": { "id": 4365572892, "name": "好利来", "name:en": "Holiland", "shop": "bakery", "opening_hours": "" }, "geometry": { "type": "Point", "coordinates": [ 116.432219328840787, 39.86623628006555 ] } },
{ "type": "Feature", "properties": { "id": 4365575389, "name": "味多美", "name:en": "Wedome", "shop": "bakery", "opening_hours": "" }, "geometry": { "type": "Point", "coordinates": [ 116.428789120624714, 39.865510178241351 ] } },
{ "type": "Feature", "properties": { "id": 4367141589, "name": "巴黎贝甜", "name:en": "Paris Baguette", "shop": "bakery", "opening_hours": "" }, "geometry": { "type": "Point", "coordinates": [ 116.433388779369494, 39.893970612908916 ] } },
{ "type": "Feature", "properties": { "id": 4367142591, "name": "味多美", "name:en": "Wedome", "shop": "bakery", "opening_hours": "" }, "geometry": { "type": "Point", "coordinates": [ 116.438239327689601, 39.893363829880343 ] } },
{ "type": "Feature", "properties": { "id": 4414027091, "name": "Wu Jin Cafe", "name:en": "Wu Jin Cafe", "shop": "bakery", "opening_hours": "Sa-Su 9:00-15:00" }, "geometry": { "type": "Point", "coordinates": [ 116.411693572546341, 39.946676376868538 ] } },
{ "type": "Feature", "properties": { "id": 4430081302, "name": "Rolancy Bakery", "name:en": "", "shop": "bakery", "opening_hours": "08:00-21:00" }, "geometry": { "type": "Point", "coordinates": [ 116.4851756086058, 39.931791186297154 ] } },
{ "type": "Feature", "properties": { "id": 4714242292, "name": "Baker & Spice", "name:en": "Baker & Spice", "shop": "bakery", "opening_hours": "" }, "geometry": { "type": "Point", "coordinates": [ 116.464120970367546, 39.950464056164783 ] } },
{ "type": "Feature", "properties": { "id": 4795504543, "name": "多乐之日", "name:en": "Tous Les Jours", "shop": "bakery", "opening_hours": "" }, "geometry": { "type": "Point", "coordinates": [ 116.457896503530534, 39.932302410336554 ] } },
{ "type": "Feature", "properties": { "id": 4858657847, "name": "", "name:en": "there will be BREAD", "shop": "bakery", "opening_hours": "" }, "geometry": { "type": "Point", "coordinates": [ 116.445471079335505, 39.936572692248262 ] } },
{ "type": "Feature", "properties": { "id": 4894478421, "name": "多乐之日", "name:en": "Tous les Jours", "shop": "bakery", "opening_hours": "" }, "geometry": { "type": "Point", "coordinates": [ 116.478820751914967, 39.972039775623124 ] } },
{ "type": "Feature", "properties": { "id": 4937678122, "name": "Huilifa Bingwu", "name:en": "Huilifa Bingwu", "shop": "bakery", "opening_hours": "" }, "geometry": { "type": "Point", "coordinates": [ 116.408736945222245, 39.938874449371284 ] } },
{ "type": "Feature", "properties": { "id": 4985269421, "name": "味多美", "name:en": "Wedome", "shop": "bakery", "opening_hours": "" }, "geometry": { "type": "Point", "coordinates": [ 116.416170532966547, 39.918513014626704 ] } },
{ "type": "Feature", "properties": { "id": 4985269721, "name": "", "name:en": "Golden Phoenix", "shop": "bakery", "opening_hours": "" }, "geometry": { "type": "Point", "coordinates": [ 116.414213129494399, 39.918814882532359 ] } },
{ "type": "Feature", "properties": { "id": 5002370621, "name": "", "name:en": "85 Degrees Coffee", "shop": "bakery", "opening_hours": "" }, "geometry": { "type": "Point", "coordinates": [ 116.417299409284809, 39.897105877275258 ] } },
{ "type": "Feature", "properties": { "id": 5002396421, "name": "多乐之日", "name:en": "Tous les Jours", "shop": "bakery", "opening_hours": "" }, "geometry": { "type": "Point", "coordinates": [ 116.417197368070845, 39.897122816435761 ] } },
{ "type": "Feature", "properties": { "id": 5002396422, "name": "", "name:en": "85 degree cafe", "shop": "bakery", "opening_hours": "" }, "geometry": { "type": "Point", "coordinates": [ 116.384880197159305, 39.883561414460495 ] } },
{ "type": "Feature", "properties": { "id": 5002396423, "name": "", "name:en": "Wedomé", "shop": "bakery", "opening_hours": "" }, "geometry": { "type": "Point", "coordinates": [ 116.384821222980293, 39.883502854774548 ] } },
{ "type": "Feature", "properties": { "id": 5002396424, "name": "味多美", "name:en": "Wedome", "shop": "bakery", "opening_hours": "" }, "geometry": { "type": "Point", "coordinates": [ 116.408849067408397, 39.929717579762929 ] } },
{ "type": "Feature", "properties": { "id": 5064027321, "name": "KempiDeli", "name:en": "KempiDeli", "shop": "bakery", "opening_hours": "" }, "geometry": { "type": "Point", "coordinates": [ 116.464073212747209, 39.948889103242358 ] } },
{ "type": "Feature", "properties": { "id": 5127998121, "name": "", "name:en": "Auspicious Phoenix", "shop": "bakery", "opening_hours": "" }, "geometry": { "type": "Point", "coordinates": [ 116.395107338889943, 39.885966042678483 ] } },
{ "type": "Feature", "properties": { "id": 5141010274, "name": "巴黎贝甜", "name:en": "Paris Baguette", "shop": "bakery", "opening_hours": "" }, "geometry": { "type": "Point", "coordinates": [ 116.48073157588864, 39.96656375668077 ] } },
{ "type": "Feature", "properties": { "id": 5171087522, "name": "京城寿桃第一家", "name:en": "", "shop": "bakery", "opening_hours": "" }, "geometry": { "type": "Point", "coordinates": [ 116.420914655508128, 39.873830382728471 ] } },
{ "type": "Feature", "properties": { "id": 5227974031, "name": "味多美", "name:en": "Wedome", "shop": "bakery", "opening_hours": "" }, "geometry": { "type": "Point", "coordinates": [ 116.450733079506008, 39.94090110597736 ] } },
{ "type": "Feature", "properties": { "id": 5349977126, "name": "味多美", "name:en": "Wedome", "shop": "bakery", "opening_hours": "" }, "geometry": { "type": "Point", "coordinates": [ 116.418036944155972, 39.893667626980488 ] } },
{ "type": "Feature", "properties": { "id": 5384910222, "name": "", "name:en": "Gertz danish bakery", "shop": "bakery", "opening_hours": "" }, "geometry": { "type": "Point", "coordinates": [ 116.454510276578745, 39.935711326965013 ] } },
{ "type": "Feature", "properties": { "id": 5623592122, "name": "巴黎贝甜", "name:en": "Paris Baguette", "shop": "bakery", "opening_hours": "" }, "geometry": { "type": "Point", "coordinates": [ 116.416914953790737, 39.942045019612536 ] } },
{ "type": "Feature", "properties": { "id": 5643527922, "name": "海小姐的玫瑰饼", "name:en": "Miss Hai's Cake", "shop": "bakery", "opening_hours": "" }, "geometry": { "type": "Point", "coordinates": [ 116.403108989587679, 39.935604511830547 ] } },
{ "type": "Feature", "properties": { "id": 5800557953, "name": "多乐之日", "name:en": "Tous les Jours", "shop": "bakery", "opening_hours": "" }, "geometry": { "type": "Point", "coordinates": [ 116.459706147178878, 39.893912500923328 ] } },
{ "type": "Feature", "properties": { "id": 5809119653, "name": "多乐之日", "name:en": "Tous les Jours", "shop": "bakery", "opening_hours": "" }, "geometry": { "type": "Point", "coordinates": [ 116.457469797592367, 39.912918787347337 ] } },
{ "type": "Feature", "properties": { "id": 5884588408, "name": "鼓楼馒头店", "name:en": "", "shop": "bakery", "opening_hours": "" }, "geometry": { "type": "Point", "coordinates": [ 116.408146547990597, 39.944100248187461 ] } },
{ "type": "Feature", "properties": { "id": 5949236386, "name": "", "name:en": "Baker & Spice", "shop": "bakery", "opening_hours": "" }, "geometry": { "type": "Point", "coordinates": [ 116.454502809721433, 39.938181241584921 ] } },
{ "type": "Feature", "properties": { "id": 5949236585, "name": "", "name:en": "Our bakery", "shop": "bakery", "opening_hours": "" }, "geometry": { "type": "Point", "coordinates": [ 116.454169217859985, 39.9386212141127 ] } },
{ "type": "Feature", "properties": { "id": 5963394986, "name": "", "name:en": "Withweat", "shop": "bakery", "opening_hours": "Mo-Su 07:30-21:30" }, "geometry": { "type": "Point", "coordinates": [ 116.438833086647904, 39.923979787795183 ] } },
{ "type": "Feature", "properties": { "id": 5963407585, "name": "巴黎贝甜", "name:en": "Paris Baguette", "shop": "bakery", "opening_hours": "" }, "geometry": { "type": "Point", "coordinates": [ 116.43799370927826, 39.915798751104816 ] } },
{ "type": "Feature", "properties": { "id": 5964187085, "name": "巴黎贝甜", "name:en": "Paris Baguette", "shop": "bakery", "opening_hours": "" }, "geometry": { "type": "Point", "coordinates": [ 116.395787174907966, 39.938633506731144 ] } },
{ "type": "Feature", "properties": { "id": 6356150386, "name": "巴黎贝甜", "name:en": "Paris Baguette", "shop": "bakery", "opening_hours": "" }, "geometry": { "type": "Point", "coordinates": [ 116.438814508347946, 39.924677041606969 ] } },
{ "type": "Feature", "properties": { "id": 6364868385, "name": "面包&糖果", "name:en": "", "shop": "bakery", "opening_hours": "" }, "geometry": { "type": "Point", "coordinates": [ 116.417456680659072, 39.901497016554707 ] } },
{ "type": "Feature", "properties": { "id": 6374189558, "name": "巴黎贝甜", "name:en": "", "shop": "bakery", "opening_hours": "" }, "geometry": { "type": "Point", "coordinates": [ 116.473752796232375, 39.949197650409872 ] } },
{ "type": "Feature", "properties": { "id": 6454712586, "name": "巴黎贝甜", "name:en": "Paris Baguette", "shop": "bakery", "opening_hours": "" }, "geometry": { "type": "Point", "coordinates": [ 116.420336184364416, 39.886366014727464 ] } },
{ "type": "Feature", "properties": { "id": 6454895385, "name": "好利来", "name:en": "Holiland", "shop": "bakery", "opening_hours": "" }, "geometry": { "type": "Point", "coordinates": [ 116.450923256364334, 39.908903723716804 ] } },
{ "type": "Feature", "properties": { "id": 6531655986, "name": "好利来", "name:en": "Holiland", "shop": "bakery", "opening_hours": "Mo-Su 07:30-21:30" }, "geometry": { "type": "Point", "coordinates": [ 116.418521909648348, 39.909848349408861 ] } },
{ "type": "Feature", "properties": { "id": 7371449032, "name": "金凤成祥", "name:en": "", "shop": "bakery", "opening_hours": "" }, "geometry": { "type": "Point", "coordinates": [ 116.438610721743146, 39.940790869434096 ] } },
{ "type": "Feature", "properties": { "id": 7449441245, "name": "原麦山丘", "name:en": "With Wheat", "shop": "bakery", "opening_hours": "" }, "geometry": { "type": "Point", "coordinates": [ 116.460625428856673, 39.896818340107437 ] } },
{ "type": "Feature", "properties": { "id": 7456939026, "name": "味多美", "name:en": "", "shop": "bakery", "opening_hours": "" }, "geometry": { "type": "Point", "coordinates": [ 116.402471182111071, 39.969673894783178 ] } },
{ "type": "Feature", "properties": { "id": 7456943094, "name": "味多美", "name:en": "Wedome", "shop": "bakery", "opening_hours": "" }, "geometry": { "type": "Point", "coordinates": [ 116.38034049503328, 39.963612966717783 ] } },
{ "type": "Feature", "properties": { "id": 7456944524, "name": "味多美", "name:en": "Wedome", "shop": "bakery", "opening_hours": "Mo-Su 07:30-21:00" }, "geometry": { "type": "Point", "coordinates": [ 116.375873087743201, 39.967683613058433 ] } },
{ "type": "Feature", "properties": { "id": 7457001011, "name": "味多美", "name:en": "", "shop": "bakery", "opening_hours": "" }, "geometry": { "type": "Point", "coordinates": [ 116.411822940021139, 39.968578725461619 ] } },
{ "type": "Feature", "properties": { "id": 7457001013, "name": "味多美", "name:en": "Wedome", "shop": "bakery", "opening_hours": "" }, "geometry": { "type": "Point", "coordinates": [ 116.417476113935024, 39.965284729929756 ] } },
{ "type": "Feature", "properties": { "id": 7475239416, "name": "好利来", "name:en": "Holiland", "shop": "bakery", "opening_hours": "" }, "geometry": { "type": "Point", "coordinates": [ 116.356674164248204, 39.860929709643464 ] } },
{ "type": "Feature", "properties": { "id": 7476017297, "name": "好利来", "name:en": "Holiland", "shop": "bakery", "opening_hours": "" }, "geometry": { "type": "Point", "coordinates": [ 116.467195987806335, 39.928848557487825 ] } },
{ "type": "Feature", "properties": { "id": 7532995583, "name": "原麦山丘", "name:en": "With Wheat", "shop": "bakery", "opening_hours": "" }, "geometry": { "type": "Point", "coordinates": [ 116.45315767913587, 39.919027166867046 ] } },
{ "type": "Feature", "properties": { "id": 7533114159, "name": "原麦山丘", "name:en": "With Wheat", "shop": "bakery", "opening_hours": "" }, "geometry": { "type": "Point", "coordinates": [ 116.356031368540698, 39.953094832317625 ] } },
{ "type": "Feature", "properties": { "id": 7533120815, "name": "原麦山丘", "name:en": "With Wheat", "shop": "bakery", "opening_hours": "" }, "geometry": { "type": "Point", "coordinates": [ 116.417896297057311, 39.897347954452187 ] } },
{ "type": "Feature", "properties": { "id": 7533139001, "name": "原麦山丘", "name:en": "With Wheat", "shop": "bakery", "opening_hours": "" }, "geometry": { "type": "Point", "coordinates": [ 116.505761783500716, 39.914908048744913 ] } },
{ "type": "Feature", "properties": { "id": 7551608877, "name": "巴黎贝甜", "name:en": "Paris Baguette", "shop": "bakery", "opening_hours": "" }, "geometry": { "type": "Point", "coordinates": [ 116.305102456372339, 39.866289929563401 ] } },
{ "type": "Feature", "properties": { "id": 7563248693, "name": "原麦山丘", "name:en": "With Wheat", "shop": "bakery", "opening_hours": "" }, "geometry": { "type": "Point", "coordinates": [ 116.479943492712096, 39.909079453729404 ] } },
{ "type": "Feature", "properties": { "id": 7580408273, "name": "好利来", "name:en": "Holiland", "shop": "bakery", "opening_hours": "" }, "geometry": { "type": "Point", "coordinates": [ 116.366370260826741, 39.854335688886309 ] } },
{ "type": "Feature", "properties": { "id": 7591773083, "name": "好利来", "name:en": "Holiland", "shop": "bakery", "opening_hours": "" }, "geometry": { "type": "Point", "coordinates": [ 116.417534065620487, 39.91740527944328 ] } },
{ "type": "Feature", "properties": { "id": 7591784701, "name": "好利来", "name:en": "Holiland", "shop": "bakery", "opening_hours": "" }, "geometry": { "type": "Point", "coordinates": [ 116.417711382890886, 39.911286648249281 ] } },
{ "type": "Feature", "properties": { "id": 7712384810, "name": "味多美", "name:en": "Wedome", "shop": "bakery", "opening_hours": "" }, "geometry": { "type": "Point", "coordinates": [ 116.476611664581455, 39.89369781276568 ] } },
{ "type": "Feature", "properties": { "id": 8024541489, "name": "味多美", "name:en": "Wedome", "shop": "bakery", "opening_hours": "" }, "geometry": { "type": "Point", "coordinates": [ 116.319988562273537, 39.967009063078393 ] } },
{ "type": "Feature", "properties": { "id": 8237587205, "name": "好利来", "name:en": "Holiland", "shop": "bakery", "opening_hours": "" }, "geometry": { "type": "Point", "coordinates": [ 116.361958813276402, 39.888910969425268 ] } },
{ "type": "Feature", "properties": { "id": 8299130620, "name": "好利来", "name:en": "Holiland", "shop": "bakery", "opening_hours": "" }, "geometry": { "type": "Point", "coordinates": [ 116.311751275256398, 39.880219202541674 ] } },
{ "type": "Feature", "properties": { "id": 8299130629, "name": "味多美", "name:en": "Wedome", "shop": "bakery", "opening_hours": "" }, "geometry": { "type": "Point", "coordinates": [ 116.311570982417933, 39.88237279813525 ] } },
{ "type": "Feature", "properties": { "id": 8433020817, "name": "起司家", "name:en": "", "shop": "bakery", "opening_hours": "" }, "geometry": { "type": "Point", "coordinates": [ 116.396147502758424, 39.939498836814096 ] } },
{ "type": "Feature", "properties": { "id": 8671853926, "name": "味多美", "name:en": "", "shop": "bakery", "opening_hours": "" }, "geometry": { "type": "Point", "coordinates": [ 116.315064402328161, 39.932730413100138 ] } },
{ "type": "Feature", "properties": { "id": 8946261804, "name": "馒头面条", "name:en": "", "shop": "bakery", "opening_hours": "" }, "geometry": { "type": "Point", "coordinates": [ 116.329711608711492, 39.964414120817224 ] } },
{ "type": "Feature", "properties": { "id": 8971448807, "name": "稻香村", "name:en": "", "shop": "bakery", "opening_hours": "" }, "geometry": { "type": "Point", "coordinates": [ 116.506768695874243, 39.945057668177867 ] } },
{ "type": "Feature", "properties": { "id": 9671804279, "name": "好利来", "name:en": "Holiland", "shop": "bakery", "opening_hours": "" }, "geometry": { "type": "Point", "coordinates": [ 116.439932022548049, 39.954658329452599 ] } },
{ "type": "Feature", "properties": { "id": 10239197014, "name": "京天红炸糕", "name:en": "", "shop": "bakery", "opening_hours": "" }, "geometry": { "type": "Point", "coordinates": [ 116.40038062864889, 39.972155128543868 ] } },
{ "type": "Feature", "properties": { "id": 10692260339, "name": "好利来", "name:en": "Holiland", "shop": "bakery", "opening_hours": "" }, "geometry": { "type": "Point", "coordinates": [ 116.419215587496836, 39.894371643184677 ] } },
{ "type": "Feature", "properties": { "id": 11178259343, "name": "好利来面包店", "name:en": "", "shop": "bakery", "opening_hours": "Mo-Sa 07:30-21:30" }, "geometry": { "type": "Point", "coordinates": [ 116.305776332713705, 39.850489623493473 ] } },
{ "type": "Feature", "properties": { "id": 11243564183, "name": "宫门口馒头铺", "name:en": "", "shop": "bakery", "opening_hours": "Mo-Su 07:00-19:30" }, "geometry": { "type": "Point", "coordinates": [ 116.307459107381348, 39.963712304668796 ] } },
{ "type": "Feature", "properties": { "id": 11294892416, "name": "胶东面食厨房", "name:en": "", "shop": "bakery", "opening_hours": "" }, "geometry": { "type": "Point", "coordinates": [ 116.325616471618588, 39.971685435264618 ] } }
]
}
